[{"OBJECT_NAME":"SMDC ONE 1.2","OBJECT_ID":"2012-048B","EPOCH":"2026-03-09T14:14:46.220928","MEAN_MOTION":15.19069434,"ECCENTRICITY":0.0110458,"INCLINATION":64.6579,"RA_OF_ASC_NODE":143.2061,"ARG_OF_PERICENTER":207.1808,"MEAN_ANOMALY":152.3511,"EPHEMERIS_TYPE":0,"CLASSIFICATION_TYPE":"U","NORAD_CAT_ID":38759,"ELEMENT_SET_NO":999,"REV_AT_EPOCH":10101,"BSTAR":0.00057078,"MEAN_MOTION_DOT":0.00013943,"MEAN_MOTION_DDOT":0},{"OBJECT_NAME":"STARLINK-33637","OBJECT_ID":"2025-070L","EPOCH":"2026-03-09T21:36:31.448736","MEAN_MOTION":15.27598083,"ECCENTRICITY":0.00020143,"INCLINATION":43.0028,"RA_OF_ASC_NODE":259.0427,"ARG_OF_PERICENTER":285.6269,"MEAN_ANOMALY":74.436,"EPHEMERIS_TYPE":0,"CLASSIFICATION_TYPE":"U","NORAD_CAT_ID":63470,"ELEMENT_SET_NO":999,"REV_AT_EPOCH":5300,"BSTAR":0.00096345401,"MEAN_MOTION_DOT":0.0002636,"MEAN_MOTION_DDOT":0}]
